{"type": "FeatureCollection", "features": [{"type": "Feature", "properties": {"code": "A1H001", "name": "Moilos 37 JO on Dinokana Upper Eye at Dinokana Pump Station (NCWQ)"}, "geometry": {"type": "Point", "coordinates": [25.85331, -25.457]}}, {"type": "Feature", "properties": {"code": "A1H002", "name": "Dinokana Lower (A1H002) - WR78"}, "geometry": {"type": "Point", "coordinates": [25.8621, -25.4444]}}, {"type": "Feature", "properties": {"code": "A1H004", "name": "Tweefontein Lower (A1H004) - WR59"}, "geometry": {"type": "Point", "coordinates": [25.9456, -25.5441]}}, {"type": "Feature", "properties": {"code": "A2H008", "name": "Elandsfontein 412 JR on Elandsfontein Eye"}, "geometry": {"type": "Point", "coordinates": [28.33111, -25.98583]}}, {"type": "Feature", "properties": {"code": "A2H010", "name": "Maloneys Eye (A2H010) - WR08"}, "geometry": {"type": "Point", "coordinates": [27.5641, -26.0268]}}, {"type": "Feature", "properties": {"code": "A2H014", "name": "Schurveberg 488 JQ at Skurweberg on Hennopsrivier (NCWQ nemp NEMP)"}, "geometry": {"type": "Point", "coordinates": [27.98533, -25.79842]}}, {"type": "Feature", "properties": {"code": "A2H023", "name": "Nietgedacht 535 JQ DWJ26 on Jukskeirivier (NCWQ)"}, "geometry": {"type": "Point", "coordinates": [27.96217, -25.95466]}}, {"type": "Feature", "properties": {"code": "A2H024", "name": "Brandvlei 261 IQ on Brandvleirivier (NCWQ)"}, "geometry": {"type": "Point", "coordinates": [27.59486, -26.15119]}}, {"type": "Feature", "properties": {"code": "A2H032", "name": "Moedwil on Selonsrivier (ncwq)"}, "geometry": {"type": "Point", "coordinates": [27.02703, -25.63753]}}, {"type": "Feature", "properties": {"code": "A2H034", "name": "Scheerpoort 477 JO on Skeerpoortrivier (NCWQ)"}, "geometry": {"type": "Point", "coordinates": [27.77175, -25.82483]}}, {"type": "Feature", "properties": {"code": "A2H036", "name": "Steenbokfontein 426 JP on Kosterrivier (NCWQ nemp nemp)"}, "geometry": {"type": "Point", "coordinates": [26.88444, -25.72586]}}, {"type": "Feature", "properties": {"code": "A2H038", "name": "Rietvalei 314 JO on Waterkloofspruit Lower Site (NCWQ NCMP nemp NEMP)"}, "geometry": {"type": "Point", "coordinates": [27.21422, -25.73411]}}, {"type": "Feature", "properties": {"code": "A2H044", "name": "Vlakfontein 494 JQ on Jukskeirivier (NCWQ)"}, "geometry": {"type": "Point", "coordinates": [27.93481, -25.8955]}}, {"type": "Feature", "properties": {"code": "A2H045", "name": "Vlakfontein 494 JQ DWJ31 on Crocodile River (NCWQ)"}, "geometry": {"type": "Point", "coordinates": [27.91437, -25.89264]}}, {"type": "Feature", "properties": {"code": "A2H047", "name": "Klipfontein/Randburg on Klein-Jukskeirivier (NCWQ)"}, "geometry": {"type": "Point", "coordinates": [27.97202, -26.06818]}}, {"type": "Feature", "properties": {"code": "A2H048", "name": "Krokodilpoort 418 JO /Thaba Moya on Krokodilrivier (NCWQ nemp NEMP)"}, "geometry": {"type": "Point", "coordinates": [27.75445, -25.57327]}}, {"type": "Feature", "properties": {"code": "A2H049", "name": "Zwartkop 525 JQ on Bloubankspruit / Rietspruit (NCWQ)"}, "geometry": {"type": "Point", "coordinates": [27.83644, -25.97681]}}, {"type": "Feature", "properties": {"code": "A2H051", "name": "Van Wyks Restant 182 IQ at Muldersdrift on Krokodilrivier (NCWQ)"}, "geometry": {"type": "Point", "coordinates": [27.84269, -26.03311]}}, {"type": "Feature", "properties": {"code": "A2H053", "name": "Buffelsfontein 344 JQ at Grootfontein on Sterkstroom /Gwatlhe (NCWQ)"}, "geometry": {"type": "Point", "coordinates": [27.47603, -25.80928]}}, {"type": "Feature", "properties": {"code": "A2H058", "name": "Ifafa 457 JQ at Rietfontein / Syferfontein on Swartspruit (NCWQ)"}, "geometry": {"type": "Point", "coordinates": [27.90986, -25.74819]}}, {"type": "Feature", "properties": {"code": "A2H069", "name": "Kleinfontein on Right Canal from Hartbeespoort Dam"}, "geometry": {"type": "Point", "coordinates": [27.7625, -25.50833]}}, {"type": "Feature", "properties": {"code": "A2H096", "name": "Lindleyspoort 220 JP on Right Canal from Lindley S Poort Dam (NCWQ nemp NEMP)"}, "geometry": {"type": "Point", "coordinates": [26.69036, -25.4975]}}, {"type": "Feature", "properties": {"code": "A2H100", "name": "Roodeplaat Dam on Pienaars River: Left Canal (nemp nemp)"}, "geometry": {"type": "Point", "coordinates": [28.3719, -25.6186]}}, {"type": "Feature", "properties": {"code": "A2H101", "name": "Roodeplaat Dam on Pienaars River: Left Canal to Right Bank"}, "geometry": {"type": "Point", "coordinates": [28.3721, -25.6185]}}, {"type": "Feature", "properties": {"code": "A2H102", "name": "Roodeplaat Dam on Pienaars River: Down Stream Weir (NCWQ nemp NEMP)"}, "geometry": {"type": "Point", "coordinates": [28.3721, -25.6177]}}, {"type": "Feature", "properties": {"code": "A2H104", "name": "Waterkloof 423 JP Down Stream Weir for Koster Dam on Kosterrivier (nemp NEMP)"}, "geometry": {"type": "Point", "coordinates": [26.90569, -25.69847]}}, {"type": "Feature", "properties": {"code": "A2H106", "name": "Klipvoor Dam on Pienaars River: Down Stream Weir (NCWQ nemp NEMP)"}, "geometry": {"type": "Point", "coordinates": [27.81111, -25.13111]}}, {"type": "Feature", "properties": {"code": "A2H107", "name": "Brakfontein 404 JP Down Stream Weir for Swartruggens Dam on Elandsrivier (nemp nemp)"}, "geometry": {"type": "Point", "coordinates": [26.69469, -25.657]}}, {"type": "Feature", "properties": {"code": "A2H110", "name": "Canal from Roodekopjes Dam at Bulhoek (nemp nemp)"}, "geometry": {"type": "Point", "coordinates": [27.48947, -25.31856]}}, {"type": "Feature", "properties": {"code": "A2H111", "name": "Vaalkop Dam on Elands River: downstream Weir (NCWQ NCMP nemp NEMP)"}, "geometry": {"type": "Point", "coordinates": [27.47622, -25.30658]}}, {"type": "Feature", "properties": {"code": "A2H113", "name": "Roodekopjes Dam on Crocodile River: Left Canal (nemp nemp)"}, "geometry": {"type": "Point", "coordinates": [27.57619, -25.40667]}}, {"type": "Feature", "properties": {"code": "A2H114", "name": "Roodekopjes Dam on Crocodile River: Right Canal (nemp)"}, "geometry": {"type": "Point", "coordinates": [27.57622, -25.40278]}}, {"type": "Feature", "properties": {"code": "A2H117", "name": "Hartbeesfontein Hartbeespoort (nemp nemp)"}, "geometry": {"type": "Point", "coordinates": [27.84778, -25.72278]}}, {"type": "Feature", "properties": {"code": "A2H122", "name": "Roodeplaat Sewage: Settling Pond S Outflow (NEMP NMMP)"}, "geometry": {"type": "Point", "coordinates": [28.37056, -25.615]}}, {"type": "Feature", "properties": {"code": "A2H124", "name": "Zeekoegat Sewage Effluent (NEMP NMMP)"}, "geometry": {"type": "Point", "coordinates": [28.33874, -25.6232]}}, {"type": "Feature", "properties": {"code": "A2H125", "name": "Baviaanspoort Sewage Effluent (NEMP NMMP)"}, "geometry": {"type": "Point", "coordinates": [28.36194, -25.68861]}}, {"type": "Feature", "properties": {"code": "A2H126", "name": "At Franspoort Road Bridge on Edendalspruit (NEMP NMMP)"}, "geometry": {"type": "Point", "coordinates": [28.40194, -25.67778]}}, {"type": "Feature", "properties": {"code": "A2H127", "name": "Pienaars River at Baviaanspoort (Magaliesberg) (nemp nmmp)"}, "geometry": {"type": "Point", "coordinates": [28.35861, -25.695]}}, {"type": "Feature", "properties": {"code": "A2H128", "name": "A24CROC-Leeuw Faure 72 KQ - Leeuwdrift at Weir on Crocodile River (NCMP)"}, "geometry": {"type": "Point", "coordinates": [27.08983, -24.39619]}}, {"type": "Feature", "properties": {"code": "A2H132", "name": "Haakdoorndrift 373 KQ at Paul Hugo Dam on Crocodile River (NCWQ NCMP)"}, "geometry": {"type": "Point", "coordinates": [27.40906, -24.69514]}}, {"type": "Feature", "properties": {"code": "A2R003", "name": "Olifantsnek Dam at Commissiesdrift 327 JQ on Hexrivier near Dam Wall (NCWQ NEMP)"}, "geometry": {"type": "Point", "coordinates": [27.25933, -25.78511]}}, {"type": "Feature", "properties": {"code": "A2R006", "name": "Bospoort Dam at Tweedepoort 283 JQ on Hexrivier near Dam Wall (ncwq NEMP)"}, "geometry": {"type": "Point", "coordinates": [27.34936, -25.56281]}}, {"type": "Feature", "properties": {"code": "A2R007", "name": "Lindleyspoort Dam at Lindleyspoort 220 JP on Elandsrivier near Dam Wall (NCWQ NEMP)"}, "geometry": {"type": "Point", "coordinates": [26.69047, -25.49769]}}, {"type": "Feature", "properties": {"code": "A2R013", "name": "Swartruggens Dam at Brakfontein 404 JP on Elandsrivier near Dam Wall (NCWQ)"}, "geometry": {"type": "Point", "coordinates": [26.694, -25.66181]}}, {"type": "Feature", "properties": {"code": "A3H002", "name": "Bokkraal no. 1"}, "geometry": {"type": "Point", "coordinates": [26.46806, -25.8225]}}, {"type": "Feature", "properties": {"code": "A3H009", "name": "Buffelshoek Oog (A3H009) - WR53"}, "geometry": {"type": "Point", "coordinates": [26.0081, -25.7013]}}, {"type": "Feature", "properties": {"code": "A3H010", "name": "Stinkhoutboom Oog Lower (A3H010) - WR54"}, "geometry": {"type": "Point", "coordinates": [25.9959, -25.6506]}}, {"type": "Feature", "properties": {"code": "A3H017", "name": "Rhenosterfontein(A3H017) - WR60 (NCWQ)"}, "geometry": {"type": "Point", "coordinates": [26.1354, -25.7211]}}, {"type": "Feature", "properties": {"code": "A3H018", "name": "Malmanieloop at Naauwpoort"}, "geometry": {"type": "Point", "coordinates": [26.04889, -25.81361]}}, {"type": "Feature", "properties": {"code": "A3H019", "name": "Doornplaat 85 JO on Right Canal of Malmanieloop (NCWQ)"}, "geometry": {"type": "Point", "coordinates": [25.99167, -25.76408]}}, {"type": "Feature", "properties": {"code": "A3H021", "name": "Paardenvallei 67 JO on Malmanieloop Upper Eye (NCWQ)"}, "geometry": {"type": "Point", "coordinates": [25.99131, -25.63314]}}, {"type": "Feature", "properties": {"code": "A3H022", "name": "Paardenvallei 67 JO on Malmanieloop Lower Eye (NCWQ)"}, "geometry": {"type": "Point", "coordinates": [25.99542, -25.63153]}}, {"type": "Feature", "properties": {"code": "A3H028", "name": "Riekersdam 109 JP on Left Canal from Marico-Bosveld Dam (NCWQ)"}, "geometry": {"type": "Point", "coordinates": [26.39283, -25.46847]}}, {"type": "Feature", "properties": {"code": "A3H029", "name": "Riekersdam 109 JP downstream Weir of Marico-Bosveld Dam"}, "geometry": {"type": "Point", "coordinates": [26.39233, -25.46178]}}, {"type": "Feature", "properties": {"code": "A3H030", "name": "Kalkdam 241 JP Weir for Leakage from Klein-Maricopoort Dam on Klein-Maricor"}, "geometry": {"type": "Point", "coordinates": [26.15114, -25.52208]}}, {"type": "Feature", "properties": {"code": "A3H031", "name": "Kalkdam 241 JP on Left Canal from Klein-Maricopoort Dam (NCWQ)"}, "geometry": {"type": "Point", "coordinates": [26.15033, -25.52169]}}, {"type": "Feature", "properties": {"code": "A3H032", "name": "Veeplaats 108 JP downstream Weir for Kromellenboog Dam"}, "geometry": {"type": "Point", "coordinates": [26.35014, -25.43894]}}, {"type": "Feature", "properties": {"code": "A3H033", "name": "Kromellenboog 104 JP on Left Canal from Kromellenboog Dam (NCWQ)"}, "geometry": {"type": "Point", "coordinates": [26.34569, -25.44281]}}, {"type": "Feature", "properties": {"code": "A3R001", "name": "Marico-Bosveld Dam at Doornkraal 110 JP on Groot-Marico Rivier near Dam Wall (NCWQ NEMP)"}, "geometry": {"type": "Point", "coordinates": [26.39258, -25.47044]}}, {"type": "Feature", "properties": {"code": "A3R002", "name": "Klein-Maricopoort Dam at Kalkdam 241 JP near Dam Wall (NCWQ NEMP)"}, "geometry": {"type": "Point", "coordinates": [26.14942, -25.52189]}}, {"type": "Feature", "properties": {"code": "A3R005", "name": "Lehujwane- / Sehujwane Dam at Buispoort 22 JO near Dam Wall (NCWQ)"}, "geometry": {"type": "Point", "coordinates": [25.94886, -25.30642]}}, {"type": "Feature", "properties": {"code": "A4H002", "name": "Zandrivier Vaalwater"}, "geometry": {"type": "Point", "coordinates": [28.09028, -24.28222]}}, {"type": "Feature", "properties": {"code": "A5H001", "name": "Lephalala River at Doornkom (4;5 km up/St A5H001)"}, "geometry": {"type": "Point", "coordinates": [28.43111, -24.02806]}}, {"type": "Feature", "properties": {"code": "A6H037", "name": "Vogelfontein (NCWQ)"}, "geometry": {"type": "Point", "coordinates": [28.69028, -24.615]}}, {"type": "Feature", "properties": {"code": "A7H008", "name": "6.5 km downstream of A7H008 on Limpopo"}, "geometry": {"type": "Point", "coordinates": [30.02463, -22.2542]}}, {"type": "Feature", "properties": {"code": "A7H009", "name": "At Dorothy on Sandrivier (ncwq)"}, "geometry": {"type": "Point", "coordinates": [29.98333, -22.49056]}}, {"type": "Feature", "properties": {"code": "A8H014", "name": "Beaconsfield 212 MT - on Mutshedzi (NCWQ)"}, "geometry": {"type": "Point", "coordinates": [30.15727, -22.93504]}}, {"type": "Feature", "properties": {"code": "A9H003", "name": "Tshinane River at Ngudza (600M Down Stream A9H003"}, "geometry": {"type": "Point", "coordinates": [30.52833, -22.9]}}, {"type": "Feature", "properties": {"code": "A9H012", "name": "Luvuvhu River at Lambani (3KM up Stream A9H012)"}, "geometry": {"type": "Point", "coordinates": [30.86139, -22.77333]}}, {"type": "Feature", "properties": {"code": "A9H015", "name": "Barotta"}, "geometry": {"type": "Point", "coordinates": [30.27694, -23.03694]}}, {"type": "Feature", "properties": {"code": "A9H026", "name": "Tshivhasa Duthuni near R523 Road on Mutshindudi River (NCWQ)"}, "geometry": {"type": "Point", "coordinates": [30.35806, -22.95139]}}, {"type": "Feature", "properties": {"code": "A9H027", "name": "At Levubu Settlements on Latonanda (NCWQ)"}, "geometry": {"type": "Point", "coordinates": [30.23944, -23.0525]}}, {"type": "Feature", "properties": {"code": "A9H028", "name": "Luvuvhu at Nooitgedacht"}, "geometry": {"type": "Point", "coordinates": [30.17488, -23.08645]}}, {"type": "Feature", "properties": {"code": "A9H030", "name": "Nandoni Dam downstream of Dam Weir on Luvuvhu River (NCMP nmmp)"}, "geometry": {"type": "Point", "coordinates": [30.60104, -22.97852]}}, {"type": "Feature", "properties": {"code": "A9R004", "name": "Molenje S 204 LT Nandoni Dam near Dam Wall on Luvuvhu (NEMP)"}, "geometry": {"type": "Point", "coordinates": [30.59897, -22.98219]}}, {"type": "Feature", "properties": {"code": "B1H002", "name": "At Elandspruit on Spookspruit (NCWQ)"}, "geometry": {"type": "Point", "coordinates": [29.33778, -25.81833]}}, {"type": "Feature", "properties": {"code": "B1H005", "name": "Landau Vlei Draining Landau Complex - U/S of B1H005"}, "geometry": {"type": "Point", "coordinates": [29.25056, -26.00778]}}, {"type": "Feature", "properties": {"code": "B1H006", "name": "Rietfontein on Trichardspruit (NCWQ)"}, "geometry": {"type": "Point", "coordinates": [29.21417, -26.35583]}}, {"type": "Feature", "properties": {"code": "B1H017", "name": "Steenkoolsp B1H017"}, "geometry": {"type": "Point", "coordinates": [29.27417, -26.30556]}}, {"type": "Feature", "properties": {"code": "B1H019", "name": "Naauwpoort 335 JS on Noupoortspruit (NCWQ nemp NEMP)"}, "geometry": {"type": "Point", "coordinates": [29.2575, -25.93972]}}, {"type": "Feature", "properties": {"code": "B1H028", "name": "Canal from Rietspruit Dam on Roodepoort (ZRSR09)"}, "geometry": {"type": "Point", "coordinates": [29.24944, -26.17333]}}, {"type": "Feature", "properties": {"code": "B1H030", "name": "at Driefontein D/S Duhva Zbk on Boesmankransspruit"}, "geometry": {"type": "Point", "coordinates": [29.33222, -25.98611]}}, {"type": "Feature", "properties": {"code": "B2H016", "name": "At Waterval on Wilge River (NCWQ NCMP NTOX)"}, "geometry": {"type": "Point", "coordinates": [29.12747, -25.57878]}}, {"type": "Feature", "properties": {"code": "B3H019", "name": "Roodepoort Dam on Selons River: Down Stream Weir"}, "geometry": {"type": "Point", "coordinates": [29.48333, -25.39722]}}, {"type": "Feature", "properties": {"code": "B3H025", "name": "Moganyaka Loskop Noord 12 JS - at Olifants Rivier; near Weir (NCMP)"}, "geometry": {"type": "Point", "coordinates": [29.39528, -24.95861]}}, {"type": "Feature", "properties": {"code": "B3R004", "name": "Roodepoort Dam on Selons River: near Dam Wall"}, "geometry": {"type": "Point", "coordinates": [29.48333, -25.39722]}}, {"type": "Feature", "properties": {"code": "B4H015", "name": "Potloodspruit on Right Canal from Klein Spekboomrivier"}, "geometry": {"type": "Point", "coordinates": [30.5, -25.00833]}}, {"type": "Feature", "properties": {"code": "B4R007", "name": "De Hoop 886 KS - at Dam Wall of de Hoop Dam (NEMP)"}, "geometry": {"type": "Point", "coordinates": [29.95629, -24.95746]}}, {"type": "Feature", "properties": {"code": "B6H005", "name": "Driehoek on Blyderivier (NCWQ NCMP)"}, "geometry": {"type": "Point", "coordinates": [30.82889, -24.51389]}}, {"type": "Feature", "properties": {"code": "B6H017", "name": "Middlesex on Blyde (NCWQ)"}, "geometry": {"type": "Point", "coordinates": [30.85594, -24.31389]}}, {"type": "Feature", "properties": {"code": "B8H007", "name": "At Mahale on Groot-Letaba"}, "geometry": {"type": "Point", "coordinates": [30.99028, -23.67028]}}, {"type": "Feature", "properties": {"code": "B8H009", "name": "The Junction on Groot-Letaba (NCWQ)"}, "geometry": {"type": "Point", "coordinates": [30.36694, -23.88028]}}, {"type": "Feature", "properties": {"code": "B8H030", "name": "Kruger National Park at Klipkoppiesdrif on Letaba"}, "geometry": {"type": "Point", "coordinates": [31.73056, -23.94167]}}, {"type": "Feature", "properties": {"code": "B8H031", "name": "Vergelegen Dam"}, "geometry": {"type": "Point", "coordinates": [30.1, -23.775]}}, {"type": "Feature", "properties": {"code": "B8H033", "name": "Tabaan State Land on Klein-Letaba (NCWQ NCMP)"}, "geometry": {"type": "Point", "coordinates": [30.54306, -23.281]}}, {"type": "Feature", "properties": {"code": "B8H038", "name": "At Prieska on Right Canal from Groot-Letaba (ncwq)"}, "geometry": {"type": "Point", "coordinates": [30.71861, -23.64556]}}, {"type": "Feature", "properties": {"code": "B8H039", "name": "Great Letaba River: Onverwacht - Big Sluice-Right"}, "geometry": {"type": "Point", "coordinates": [29.9875, -23.94167]}}, {"type": "Feature", "properties": {"code": "B8H045", "name": "Turksvygbult on Left Canal from Magoebaskloof Dam (nemp nemp)"}, "geometry": {"type": "Point", "coordinates": [30.05694, -23.82222]}}, {"type": "Feature", "properties": {"code": "B8H046", "name": "Magoebaskloof Dam at Down Stream Weir on Politsi"}, "geometry": {"type": "Point", "coordinates": [30.0625, -23.81667]}}, {"type": "Feature", "properties": {"code": "B8H049", "name": "Doornhoek Tzaneen Dam on Pipeline from Tzaneen Dam to Treatment Works (NCWQ)"}, "geometry": {"type": "Point", "coordinates": [30.16667, -23.8]}}, {"type": "Feature", "properties": {"code": "B8R009", "name": "Nsami at Nsami Dam near Dam Wall (NCWQ NEMP)"}, "geometry": {"type": "Point", "coordinates": [30.77072, -23.2545]}}, {"type": "Feature", "properties": {"code": "B9H002", "name": "At Silvervis Dam/Kruger National Park on Shingwidzi (NCMP)"}, "geometry": {"type": "Point", "coordinates": [31.22, -23.21528]}}, {"type": "Feature", "properties": {"code": "B9H003", "name": "Shingwidzi River at Kanniedood Dam Kruger National Park (NCMP)"}, "geometry": {"type": "Point", "coordinates": [31.46262, -23.14327]}}, {"type": "Feature", "properties": {"code": "C1H004", "name": "Branddrift 322 IS Roodebank on Watervalrivier (NCWQ)"}, "geometry": {"type": "Point", "coordinates": [29.02447, -26.62794]}}, {"type": "Feature", "properties": {"code": "C1H005", "name": "Welbedacht 382 IS on Leeuspruit ( See C1H044 for Flow) (NCWQ nemp NEMP)"}, "geometry": {"type": "Point", "coordinates": [29.32528, -26.85431]}}, {"type": "Feature", "properties": {"code": "C1H006", "name": "Rietvley 488 IS on Blesbokspruit (NCWQ nemp NEMP)"}, "geometry": {"type": "Point", "coordinates": [29.54144, -26.77581]}}, {"type": "Feature", "properties": {"code": "C1H011", "name": "Grootdraai 1121 on Vaalrivier"}, "geometry": {"type": "Point", "coordinates": [28.64583, -27.01889]}}, {"type": "Feature", "properties": {"code": "C1H015", "name": "Sterkfontein Delangesdrift at Steel Bridge on Kliprivier"}, "geometry": {"type": "Point", "coordinates": [29.23572, -27.17447]}}, {"type": "Feature", "properties": {"code": "C1H038", "name": "Secunda Driefontein 289 IS - at Road Bridge on Trichardspruit"}, "geometry": {"type": "Point", "coordinates": [29.15056, -26.52972]}}, {"type": "Feature", "properties": {"code": "C1H041", "name": "Evander Sewage Works Discharge"}, "geometry": {"type": "Point", "coordinates": [29.11806, -26.49361]}}, {"type": "Feature", "properties": {"code": "C1H042", "name": "Embalenhle Sewage Discharge Point"}, "geometry": {"type": "Point", "coordinates": [29.07722, -26.55139]}}, {"type": "Feature", "properties": {"code": "C1H043", "name": "Brenden Village Waste Water Treatment Works Discharge Point"}, "geometry": {"type": "Point", "coordinates": [29.01861, -26.51028]}}, {"type": "Feature", "properties": {"code": "C2H003", "name": "Elandsfontein 53 at Engelbrechtsdrift on Vaalrivier"}, "geometry": {"type": "Point", "coordinates": [28.06331, -26.82022]}}, {"type": "Feature", "properties": {"code": "C2H006", "name": "Klerkskraal at Klerkskraal Dam on Mooirivier"}, "geometry": {"type": "Point", "coordinates": [27.16056, -26.25222]}}, {"type": "Feature", "properties": {"code": "C2H007", "name": "Pilgrims Estate 272 at Orkney on Vaalrivier (ncwq NCMP GEMS)"}, "geometry": {"type": "Point", "coordinates": [26.69808, -27.01011]}}, {"type": "Feature", "properties": {"code": "C2H010", "name": "Rietfontein at Vereeniging Intake 1 (Rw) on Vaalrivier"}, "geometry": {"type": "Point", "coordinates": [27.93639, -26.68917]}}, {"type": "Feature", "properties": {"code": "C2H011", "name": "Gerhardminnebron Eye at Gerhardminnebron (ncwq NCMP)"}, "geometry": {"type": "Point", "coordinates": [27.1525, -26.47694]}}, {"type": "Feature", "properties": {"code": "C2H013", "name": "Turffontein on Upper Turffontein Eye (NCWQ)"}, "geometry": {"type": "Point", "coordinates": [27.17833, -26.40806]}}, {"type": "Feature", "properties": {"code": "C2H015", "name": "Mckay 602 IQ at Waldrift Vereeniging on Kliprivier"}, "geometry": {"type": "Point", "coordinates": [27.96101, -26.64318]}}, {"type": "Feature", "properties": {"code": "C2H017", "name": "Killarney 745 Flood Section at Kommandodrif on Vaalriver"}, "geometry": {"type": "Point", "coordinates": [26.21977, -27.4809]}}, {"type": "Feature", "properties": {"code": "C2H020", "name": "Witpoortjie Roodepoort on Kliprivier (ntox)"}, "geometry": {"type": "Point", "coordinates": [27.81861, -26.18333]}}, {"type": "Feature", "properties": {"code": "C2H023", "name": "Luipaardsvlei on Wonderfonteinspruit"}, "geometry": {"type": "Point", "coordinates": [27.74, -26.22389]}}, {"type": "Feature", "properties": {"code": "C2H024", "name": "Gemspost 288 IQ Gemsbokfontein D/S Donaldson Dam on Wonderfonteinspruit (ncwq)"}, "geometry": {"type": "Point", "coordinates": [27.68028, -26.28417]}}, {"type": "Feature", "properties": {"code": "C2H025", "name": "Wfr 4 Gemspost 288 IQ on Wonderfonteinspruit (NCWQ)"}, "geometry": {"type": "Point", "coordinates": [27.66922, -26.28883]}}, {"type": "Feature", "properties": {"code": "C2H026", "name": "Middelvlei on Middelvleispruit (ncwq)"}, "geometry": {"type": "Point", "coordinates": [27.66917, -26.2325]}}, {"type": "Feature", "properties": {"code": "C2H027", "name": "Middelvlei on Kocksoordspruit"}, "geometry": {"type": "Point", "coordinates": [27.6525, -26.23333]}}, {"type": "Feature", "properties": {"code": "C2H028", "name": "Rietfontein on Rietfonteinspruit"}, "geometry": {"type": "Point", "coordinates": [27.59, -26.24778]}}, {"type": "Feature", "properties": {"code": "C2H030", "name": "Wonderfontein Eye at Wonderfontein-(Canal) (ncwq)"}, "geometry": {"type": "Point", "coordinates": [27.48889, -26.31306]}}, {"type": "Feature", "properties": {"code": "C2H032", "name": "Mooirivierloop (River) at Wonderfontein"}, "geometry": {"type": "Point", "coordinates": [27.3925, -26.31667]}}, {"type": "Feature", "properties": {"code": "C2H044", "name": "Wonderfontein on Oberholzer Canal South"}, "geometry": {"type": "Point", "coordinates": [27.38694, -26.33417]}}, {"type": "Feature", "properties": {"code": "C2H045", "name": "Dsw 9 Carletonville - Driefontein Canal from Driefontein Mine to Mooirivierloop"}, "geometry": {"type": "Point", "coordinates": [27.43058, -26.34856]}}, {"type": "Feature", "properties": {"code": "C2H057", "name": "Wonderfontein on West Driefontein Canal (ncwq)"}, "geometry": {"type": "Point", "coordinates": [27.38889, -26.31306]}}, {"type": "Feature", "properties": {"code": "C2H061", "name": "Palmietfontein 250 - at Klipplaatdrift on Vaal River (NCWQ NCMP nemp NEMP)"}, "geometry": {"type": "Point", "coordinates": [26.46389, -27.38972]}}, {"type": "Feature", "properties": {"code": "C2H062", "name": "Rietfontein on Leeu Spruit"}, "geometry": {"type": "Point", "coordinates": [27.60111, -26.40528]}}, {"type": "Feature", "properties": {"code": "C2H063", "name": "Wfr 7 Carletonville 270 IQ at Rooipoort on West Driefontein Transfer Canal (NCWQ)"}, "geometry": {"type": "Point", "coordinates": [27.42833, -26.34119]}}, {"type": "Feature", "properties": {"code": "C2H064", "name": "Oog van Schoonspruit 186 IP on Skoon Spruit (ncwq NCMP)"}, "geometry": {"type": "Point", "coordinates": [26.86083, -26.28389]}}, {"type": "Feature", "properties": {"code": "C2H074", "name": "Uitspanning Aan Wonderfontein 104 IQ Furrow at Tarred Road North of Welverdiend"}, "geometry": {"type": "Point", "coordinates": [27.26722, -26.36306]}}, {"type": "Feature", "properties": {"code": "C2H075", "name": "Welverdiend at Blaauwbank Rail Bridge on Mooirivierloop"}, "geometry": {"type": "Point", "coordinates": [27.25278, -26.36889]}}, {"type": "Feature", "properties": {"code": "C2H077", "name": "Wonderfontein on East and West Driefontein Canals Confluence"}, "geometry": {"type": "Point", "coordinates": [27.40333, -26.32556]}}, {"type": "Feature", "properties": {"code": "C2H078", "name": "Wonderfontein 103 IQ on Canal from Venterspost Gold Mine"}, "geometry": {"type": "Point", "coordinates": [27.40333, -26.32556]}}, {"type": "Feature", "properties": {"code": "C2H079", "name": "Wonderfontein on Venterspost Driefontein Canal C2H077 + C2H078 Mixed"}, "geometry": {"type": "Point", "coordinates": [27.40333, -26.32556]}}, {"type": "Feature", "properties": {"code": "C2H080", "name": "Wonderfontein at End 1M Pipeline from Venterspost Gold Mine"}, "geometry": {"type": "Point", "coordinates": [27.41056, -26.32639]}}, {"type": "Feature", "properties": {"code": "C2H081", "name": "Wonderfontein on Canal Out of Venters Post G/M Pipeline C2H080"}, "geometry": {"type": "Point", "coordinates": [27.41056, -26.32639]}}, {"type": "Feature", "properties": {"code": "C2H082", "name": "Rooipoort Wonderfontein on Inlet Canal to Nature Reserve"}, "geometry": {"type": "Point", "coordinates": [27.42611, -26.3275]}}, {"type": "Feature", "properties": {"code": "C2H083", "name": "Wonderfontein on Outflow from North Canal to Nature Reserve Uitspanning"}, "geometry": {"type": "Point", "coordinates": [27.32889, -26.33556]}}, {"type": "Feature", "properties": {"code": "C2H092", "name": "Canal from Gerhard-Minnebron-Eye at Gerhardminnebron"}, "geometry": {"type": "Point", "coordinates": [27.15139, -26.47994]}}, {"type": "Feature", "properties": {"code": "C2H102", "name": "At Daveyton Klipfontein U/S N12 on Blesbokspruit"}, "geometry": {"type": "Point", "coordinates": [28.46222, -26.16389]}}, {"type": "Feature", "properties": {"code": "C2H107", "name": "Canal from West Driefontein Canal at Wonderfontei"}, "geometry": {"type": "Point", "coordinates": [27.38889, -26.31306]}}, {"type": "Feature", "properties": {"code": "C2H110", "name": "Witkoppies 382 IQ on Left Principal Canal from Boskop Dam (NCWQ nemp NEMP)"}, "geometry": {"type": "Point", "coordinates": [27.11028, -26.56261]}}, {"type": "Feature", "properties": {"code": "C2H113", "name": "Klerkskraal on Right Principal Canal from Klerkskraal Dam (NCWQ)"}, "geometry": {"type": "Point", "coordinates": [27.16056, -26.2525]}}, {"type": "Feature", "properties": {"code": "C2H114", "name": "Potchefstroom Dam on Left Canal from Potchefstroom Dam"}, "geometry": {"type": "Point", "coordinates": [27.1, -26.67194]}}, {"type": "Feature", "properties": {"code": "C2H116", "name": "Klipdrift 422 IQ on Left Canal from Klipdrift Dam"}, "geometry": {"type": "Point", "coordinates": [27.29528, -26.61944]}}, {"type": "Feature", "properties": {"code": "C2H118", "name": "Elandskuil Dam on Swart Leegte River: Right Canal"}, "geometry": {"type": "Point", "coordinates": [26.77778, -26.34917]}}, {"type": "Feature", "properties": {"code": "C2H119", "name": "Rietspruit Dam on Riet Spruit: Left Canal"}, "geometry": {"type": "Point", "coordinates": [26.7975, -26.41361]}}, {"type": "Feature", "properties": {"code": "C2H122", "name": "Vaal Dam on Vaal River: Down Stream Weir (NCWQ NCMP nemp NEMP)"}, "geometry": {"type": "Point", "coordinates": [28.12111, -26.85417]}}, {"type": "Feature", "properties": {"code": "C2H131", "name": "Rw C-S1 Colliery Point on Suikerbosrant River (NCMP)"}, "geometry": {"type": "Point", "coordinates": [28.29722, -26.62889]}}, {"type": "Feature", "properties": {"code": "C2H132", "name": "Tamboekiesfontein (Herman) (Rw R5) on Rietspruit"}, "geometry": {"type": "Point", "coordinates": [28.18139, -26.42889]}}, {"type": "Feature", "properties": {"code": "C2H133", "name": "Rw C-B10 at Heidelberg on Blesbok Spruit (NCMP)"}, "geometry": {"type": "Point", "coordinates": [28.35139, -26.51028]}}, {"type": "Feature", "properties": {"code": "C2H134", "name": "Cowles Dam Outflow at Springs (Rw B9)"}, "geometry": {"type": "Point", "coordinates": [28.4675, -26.20694]}}, {"type": "Feature", "properties": {"code": "C2H135", "name": "Rietfontein (Rw N8) Natalspruit"}, "geometry": {"type": "Point", "coordinates": [28.16611, -26.42528]}}, {"type": "Feature", "properties": {"code": "C2H136", "name": "Rietspruit at Waterval (Luttig) (Rw R6)"}, "geometry": {"type": "Point", "coordinates": [28.08889, -26.45]}}, {"type": "Feature", "properties": {"code": "C2H137", "name": "Klip River at Zwartkopjes (Rw K21)"}, "geometry": {"type": "Point", "coordinates": [28.07111, -26.37972]}}, {"type": "Feature", "properties": {"code": "C2H138", "name": "Vaal River at Groot Vadersbosch/Buffelsfontein"}, "geometry": {"type": "Point", "coordinates": [26.80083, -26.93472]}}, {"type": "Feature", "properties": {"code": "C2H139", "name": "Koekemoer Spruit at Buffelsfontein (NCMP)"}, "geometry": {"type": "Point", "coordinates": [26.81722, -26.91722]}}, {"type": "Feature", "properties": {"code": "C2H140", "name": "Vaal River at Woodlands/Goose Bay Canyon (ncwq NCMP nemp NEMP)"}, "geometry": {"type": "Point", "coordinates": [27.59194, -26.73806]}}, {"type": "Feature", "properties": {"code": "C2H141", "name": "Klip River at Witkop (New Bridge) (ncwq NCMP)"}, "geometry": {"type": "Point", "coordinates": [28.08583, -26.45]}}, {"type": "Feature", "properties": {"code": "C2H142", "name": "At Grootvlei Mine Bridge East"}, "geometry": {"type": "Point", "coordinates": [28.49825, -26.25547]}}, {"type": "Feature", "properties": {"code": "C2H143", "name": "Grootvlei Mine Retention Dam Discharge Point B3B"}, "geometry": {"type": "Point", "coordinates": [28.49278, -26.25083]}}, {"type": "Feature", "properties": {"code": "C2H144", "name": "Grootvlei Mine Discharge - End of Pipe (B3C)"}, "geometry": {"type": "Point", "coordinates": [28.49222, -26.25056]}}, {"type": "Feature", "properties": {"code": "C2H145", "name": "Vlakfontein 281 JR Marievale Bird Santuary on Blesbokspruit"}, "geometry": {"type": "Point", "coordinates": [28.50917, -26.35861]}}, {"type": "Feature", "properties": {"code": "C2H146", "name": "Daggafontein 125 IR 2 km downstream N17 on Blesbokspruit"}, "geometry": {"type": "Point", "coordinates": [28.50472, -26.27247]}}, {"type": "Feature", "properties": {"code": "C2H147", "name": "at Grootvlei Betw Mine Bridge + N17 on Blesboksprui"}, "geometry": {"type": "Point", "coordinates": [28.5025, -26.25944]}}, {"type": "Feature", "properties": {"code": "C2H148", "name": "at Nigel Brick Works R42 Bridge on Blesbokspruit"}, "geometry": {"type": "Point", "coordinates": [28.49778, -26.38972]}}, {"type": "Feature", "properties": {"code": "C2H149", "name": "(B8) Nigel R51 Road Bridge to Balfour (NMMP)"}, "geometry": {"type": "Point", "coordinates": [28.50444, -26.4275]}}, {"type": "Feature", "properties": {"code": "C2H150", "name": "R555 Road Bridge on Blesbokspruit"}, "geometry": {"type": "Point", "coordinates": [28.48083, -26.21306]}}, {"type": "Feature", "properties": {"code": "C2H151", "name": "Wonderfontein (New) on Oberholzer Canal South (ncwq)"}, "geometry": {"type": "Point", "coordinates": [27.39111, -26.3325]}}, {"type": "Feature", "properties": {"code": "C2H152", "name": "Luipaardsvlei 246 IQ at Rail Bridge near Turk Shaft on Wonderfonteinspruit"}, "geometry": {"type": "Point", "coordinates": [27.76667, -26.13972]}}, {"type": "Feature", "properties": {"code": "C2H153", "name": "Goed 402 IQ at Randfontein Azaadville Bridge on Wonderfonteinspruit"}, "geometry": {"type": "Point", "coordinates": [27.76722, -26.16444]}}, {"type": "Feature", "properties": {"code": "C2H154", "name": "Luipaardsvlei at Doornkop Road Bridge on Wonderfonteinspruit"}, "geometry": {"type": "Point", "coordinates": [27.69944, -26.26583]}}, {"type": "Feature", "properties": {"code": "C2H155", "name": "West Driefontein Gold Mine Fissure H2O D/S of Nor"}, "geometry": {"type": "Point", "coordinates": [27.47278, -26.36361]}}, {"type": "Feature", "properties": {"code": "C2H156", "name": "West Driefontein Gold Mine Process H2O Road Bridg"}, "geometry": {"type": "Point", "coordinates": [27.43309, -26.35766]}}, {"type": "Feature", "properties": {"code": "C2H157", "name": "Wonderfontein at Low Water Bridge on Mooirivierloop"}, "geometry": {"type": "Point", "coordinates": [27.35417, -26.32361]}}, {"type": "Feature", "properties": {"code": "C2H161", "name": "Turffontein 126 IQ at Gravel Rd Bridge to Muiskraal on Mooirivierloop"}, "geometry": {"type": "Point", "coordinates": [27.15194, -26.43472]}}, {"type": "Feature", "properties": {"code": "C2H162", "name": "At Rysmierbult Road Bridge U/S Boskop Dam on Mooirivier"}, "geometry": {"type": "Point", "coordinates": [27.12472, -26.51444]}}, {"type": "Feature", "properties": {"code": "C2H163", "name": "Varkenslaagte Spruit on Farm Bridge D/S Western D"}, "geometry": {"type": "Point", "coordinates": [27.33944, -26.435]}}, {"type": "Feature", "properties": {"code": "C2H164", "name": "Western Nursery Dam Overflow at Elandsrand Gold M"}, "geometry": {"type": "Point", "coordinates": [27.34444, -26.44556]}}, {"type": "Feature", "properties": {"code": "C2H165", "name": "Deelkraal Gold Mine Recreational Dam Deelkraal Gm"}, "geometry": {"type": "Point", "coordinates": [27.31806, -26.455]}}, {"type": "Feature", "properties": {"code": "C2H166", "name": "Buffelsdoorn 143 IQ at Johannesburg Potchefstroom Road Bridge on Buffelsdspruit"}, "geometry": {"type": "Point", "coordinates": [27.37333, -26.4925]}}, {"type": "Feature", "properties": {"code": "C2H167", "name": "Elandsfontein 115 IQ Johannesburg Potchefstroom Rd Bridge on Elandsfonteinspruit"}, "geometry": {"type": "Point", "coordinates": [27.42083, -26.45667]}}, {"type": "Feature", "properties": {"code": "C2H168", "name": "Kraalkop 147 IQ at Old Johannesburg Potchefstroom Rd Bridge on Kraalkopsprui"}, "geometry": {"type": "Point", "coordinates": [27.49889, -26.43917]}}, {"type": "Feature", "properties": {"code": "C2H169", "name": "Weltevreden 357IQ at Losberg Bank Road Bridge on Loopspruit"}, "geometry": {"type": "Point", "coordinates": [27.53944, -26.47889]}}, {"type": "Feature", "properties": {"code": "C2H170", "name": "Klipdrift 395 IQ at at Klipdrift Dam on Loop Spruit Canal Outflow"}, "geometry": {"type": "Point", "coordinates": [27.29611, -26.61694]}}, {"type": "Feature", "properties": {"code": "C2H172", "name": "Bovenste Eye at Mooirivier Catchment"}, "geometry": {"type": "Point", "coordinates": [27.1625, -26.20056]}}, {"type": "Feature", "properties": {"code": "C2H173", "name": "Potchefstroom on Main Canal from Boskopdam"}, "geometry": {"type": "Point", "coordinates": [27.08583, -26.66028]}}, {"type": "Feature", "properties": {"code": "C2H174", "name": "Potchefstroom on Main Canal Potchefstroom Dam"}, "geometry": {"type": "Point", "coordinates": [27.08639, -26.66167]}}, {"type": "Feature", "properties": {"code": "C2H175", "name": "Uitspanning Aan Wonderfontein 104 IQ at Harry S Dam Overflow on Mooirivierloop"}, "geometry": {"type": "Point", "coordinates": [27.3375, -26.33611]}}, {"type": "Feature", "properties": {"code": "C2H176", "name": "Welverdiend at Doringdraai Dam on Varkenslaagtespruit"}, "geometry": {"type": "Point", "coordinates": [27.27417, -26.38833]}}, {"type": "Feature", "properties": {"code": "C2H177", "name": "Welgedacht on Blesbokspruit"}, "geometry": {"type": "Point", "coordinates": [28.47972, -26.19861]}}, {"type": "Feature", "properties": {"code": "C2H178", "name": "Grootvlei Mine Bridge 50M West"}, "geometry": {"type": "Point", "coordinates": [28.49694, -26.25528]}}, {"type": "Feature", "properties": {"code": "C2H179", "name": "Grootvaly 124 IR at Springs Ermelo Rd Bridge on Blesboksp (Duplicate of 90695)"}, "geometry": {"type": "Point", "coordinates": [28.50417, -26.26611]}}, {"type": "Feature", "properties": {"code": "C2H180", "name": "N17 Road Bridge Over Blesbokspruit"}, "geometry": {"type": "Point", "coordinates": [28.505, -26.27333]}}, {"type": "Feature", "properties": {"code": "C2H181", "name": "Daggafontein 125 IR Point 2 on Blesbokspruit"}, "geometry": {"type": "Point", "coordinates": [28.50275, -26.29053]}}, {"type": "Feature", "properties": {"code": "C2H182", "name": "Vlakfontein 281 IR at Marievale Bird Sanctuary Bridge on Blesbokspruit"}, "geometry": {"type": "Point", "coordinates": [28.51611, -26.35528]}}, {"type": "Feature", "properties": {"code": "C2H183", "name": "R42 Delmas- Nigel Road Bridge"}, "geometry": {"type": "Point", "coordinates": [28.50556, -26.38694]}}, {"type": "Feature", "properties": {"code": "C2H184", "name": "Noycedale 191 IR Nigel on Blesbokspruit"}, "geometry": {"type": "Point", "coordinates": [28.45636, -26.43886]}}, {"type": "Feature", "properties": {"code": "C2H185", "name": "Poortjie Road on Blesbokspruit"}, "geometry": {"type": "Point", "coordinates": [28.42583, -26.47806]}}, {"type": "Feature", "properties": {"code": "C2H186", "name": "Klipstapel 384 IR Duplicate on Blesbokspruit"}, "geometry": {"type": "Point", "coordinates": [28.29861, -26.58417]}}, {"type": "Feature", "properties": {"code": "C2H187", "name": "Homestead Lake Overflow"}, "geometry": {"type": "Point", "coordinates": [28.29306, -26.17528]}}, {"type": "Feature", "properties": {"code": "C2H188", "name": "Rietfontein 115 IR New Kleinfontein on Benoni Old Waste Water Treatment Works"}, "geometry": {"type": "Point", "coordinates": [28.31806, -26.21028]}}, {"type": "Feature", "properties": {"code": "C2H189", "name": "Blesbokspruit Canal at Snake Road"}, "geometry": {"type": "Point", "coordinates": [28.33472, -26.18194]}}, {"type": "Feature", "properties": {"code": "C2H191", "name": "Vlakfontein 69 IR Rynfield Dam Overflow (Dup)"}, "geometry": {"type": "Point", "coordinates": [28.36528, -26.16028]}}, {"type": "Feature", "properties": {"code": "C2H192", "name": "Vlakfontein 69 IR Victor Penning Bird Sanctuary Outflow"}, "geometry": {"type": "Point", "coordinates": [28.36611, -26.15861]}}, {"type": "Feature", "properties": {"code": "C2H194", "name": "Modderfontein 76 IR Railway Stream Hospital Road Stream"}, "geometry": {"type": "Point", "coordinates": [28.39111, -26.19944]}}, {"type": "Feature", "properties": {"code": "C2H196", "name": "Blesbokspruit on R29 Main Reef Road"}, "geometry": {"type": "Point", "coordinates": [28.39194, -26.18389]}}, {"type": "Feature", "properties": {"code": "C2H197", "name": "Modderfontein 76 IR Government G/M Areas"}, "geometry": {"type": "Point", "coordinates": [28.40694, -26.21167]}}, {"type": "Feature", "properties": {"code": "C2H198", "name": "Murray Park Blesbokspruit at Bird Dam Outflow"}, "geometry": {"type": "Point", "coordinates": [28.41806, -26.2125]}}, {"type": "Feature", "properties": {"code": "C2H199", "name": "Geduld Deryck Terblanche Park (6/L/4)"}, "geometry": {"type": "Point", "coordinates": [28.42222, -26.22528]}}, {"type": "Feature", "properties": {"code": "C2H200", "name": "East Geduld Mines Enstra Road on Canal Outlet from Alexander Dam"}, "geometry": {"type": "Point", "coordinates": [28.44194, -26.21583]}}, {"type": "Feature", "properties": {"code": "C2H201", "name": "Sappi Combined Final Effluent"}, "geometry": {"type": "Point", "coordinates": [28.45056, -26.21]}}, {"type": "Feature", "properties": {"code": "C2H202", "name": "Sappi Combined Final Effluent"}, "geometry": {"type": "Point", "coordinates": [28.45417, -26.20889]}}, {"type": "Feature", "properties": {"code": "C2H203", "name": "Cowles Dam Overflow"}, "geometry": {"type": "Point", "coordinates": [28.46417, -26.205]}}, {"type": "Feature", "properties": {"code": "C2H206", "name": "Grootvlei Mine Springs-Raw Underground Water"}, "geometry": {"type": "Point", "coordinates": [28.48889, -26.25056]}}, {"type": "Feature", "properties": {"code": "C2H207", "name": "Grootvlei Mine Hds Plant Effluent"}, "geometry": {"type": "Point", "coordinates": [28.49583, -26.24944]}}, {"type": "Feature", "properties": {"code": "C2H208", "name": "Grootvlei Mine Springs-Shaft 4"}, "geometry": {"type": "Point", "coordinates": [28.47833, -26.235]}}, {"type": "Feature", "properties": {"code": "C2H210", "name": "Klein Blesbokspruit on R29 Ermelo Road"}, "geometry": {"type": "Point", "coordinates": [28.48472, -26.2625]}}, {"type": "Feature", "properties": {"code": "C2H212", "name": "Nigel Stormwater Canal on R42 Road"}, "geometry": {"type": "Point", "coordinates": [28.46667, -26.41583]}}, {"type": "Feature", "properties": {"code": "C2H214", "name": "Maraisdrift 190 IR - Nigel Jameson Park Waste Water Treatment Works Poortjie Rd"}, "geometry": {"type": "Point", "coordinates": [28.42333, -26.46028]}}, {"type": "Feature", "properties": {"code": "C2H216", "name": "Stream from Duduza at Kaydale"}, "geometry": {"type": "Point", "coordinates": [28.4025, -26.47028]}}, {"type": "Feature", "properties": {"code": "C2H218", "name": "Klip River at R41 Witpoortjie U/S Durban Deep Mine (NMMP)"}, "geometry": {"type": "Point", "coordinates": [27.81861, -26.17667]}}, {"type": "Feature", "properties": {"code": "C2H219", "name": "Klip River at Durban Deep Mine (D/S Shaft no.5)"}, "geometry": {"type": "Point", "coordinates": [27.83694, -26.1775]}}, {"type": "Feature", "properties": {"code": "C2H220", "name": "At Golden Highway Olifantsvlei van Wyk on Kliprivier (NMMP)"}, "geometry": {"type": "Point", "coordinates": [27.90306, -26.33611]}}, {"type": "Feature", "properties": {"code": "C2H221", "name": "Russel Stream at New Canada Rd D/S Crown Mine"}, "geometry": {"type": "Point", "coordinates": [27.98194, -26.22028]}}, {"type": "Feature", "properties": {"code": "C2H222", "name": "At New Canada Road on Russel Stream"}, "geometry": {"type": "Point", "coordinates": [27.95233, -26.21119]}}, {"type": "Feature", "properties": {"code": "C2H223", "name": "Russel Stream (Klipspruit Trib.) at Booysens Res /"}, "geometry": {"type": "Point", "coordinates": [28.00306, -26.22694]}}, {"type": "Feature", "properties": {"code": "C2H224", "name": "Klipspruit at Soweto Highway; Mzimhlope Hostel-M82"}, "geometry": {"type": "Point", "coordinates": [27.92889, -26.2225]}}, {"type": "Feature", "properties": {"code": "C2H225", "name": "Rosherville Lower Germiston on Stream at City Deep"}, "geometry": {"type": "Point", "coordinates": [28.10667, -26.22694]}}, {"type": "Feature", "properties": {"code": "C2H226", "name": "at R46 ds City Deep Gm on Stream at Simmer + Jack Gm"}, "geometry": {"type": "Point", "coordinates": [28.12417, -26.23778]}}, {"type": "Feature", "properties": {"code": "C2H227", "name": "Hillview Smith Avenue U/S Simmer + Jack Gm on Stre"}, "geometry": {"type": "Point", "coordinates": [28.13472, -26.2175]}}, {"type": "Feature", "properties": {"code": "C2H228", "name": "Natal Spruit at Alberton/Heidelberg Road-R554"}, "geometry": {"type": "Point", "coordinates": [28.14194, -26.29611]}}, {"type": "Feature", "properties": {"code": "C2H229", "name": "At Delmore U/S Elsburg Dam R46 on Elsburgspruit"}, "geometry": {"type": "Point", "coordinates": [28.195, -26.21278]}}, {"type": "Feature", "properties": {"code": "C2H230", "name": "At Wadeville D/S Elsburg Dam R39 on Elsburgspruit"}, "geometry": {"type": "Point", "coordinates": [28.205, -26.24861]}}, {"type": "Feature", "properties": {"code": "C2H231", "name": "Downstream of Cinderella Dam on Dixie Spruit"}, "geometry": {"type": "Point", "coordinates": [28.22222, -26.26139]}}, {"type": "Feature", "properties": {"code": "C2H232", "name": "Riet Spruit at R103/Mapleton Agricultural Holding"}, "geometry": {"type": "Point", "coordinates": [28.24444, -26.37083]}}, {"type": "Feature", "properties": {"code": "C2H233", "name": "Klip River at Riviera Golf Course (U/S Confluence"}, "geometry": {"type": "Point", "coordinates": [27.95556, -26.66389]}}, {"type": "Feature", "properties": {"code": "C2H234", "name": "Suikerbosrantriver at Badfontein (NCWQ)"}, "geometry": {"type": "Point", "coordinates": [28.11, -26.69333]}}, {"type": "Feature", "properties": {"code": "C2H235", "name": "Stormwater Canal at Palmiet Ferrochrome S"}, "geometry": {"type": "Point", "coordinates": [27.75917, -26.13222]}}, {"type": "Feature", "properties": {"code": "C2H236", "name": "Manganese Metal Property"}, "geometry": {"type": "Point", "coordinates": [27.76, -26.1125]}}, {"type": "Feature", "properties": {"code": "C2H237", "name": "Rietvalei 241 IQ Flip Human WCW Final Effluent"}, "geometry": {"type": "Point", "coordinates": [27.77111, -26.18111]}}, {"type": "Feature", "properties": {"code": "C2H238", "name": "Luipaardsvlei Panvlak Gold Mine"}, "geometry": {"type": "Point", "coordinates": [27.74, -26.25139]}}, {"type": "Feature", "properties": {"code": "C2H239", "name": "Final Effluent from Hannes van Niekerk WCW at Ven (nemp)"}, "geometry": {"type": "Point", "coordinates": [27.61111, -26.31]}}, {"type": "Feature", "properties": {"code": "C2H240", "name": "Final Effluent from W + E Driefontein at Kraalkop"}, "geometry": {"type": "Point", "coordinates": [27.46806, -26.42889]}}, {"type": "Feature", "properties": {"code": "C2H241", "name": "Final Effluent from Doornfontein G/M#3 at Doornfo"}, "geometry": {"type": "Point", "coordinates": [27.34556, -26.425]}}, {"type": "Feature", "properties": {"code": "C2H242", "name": "Welverdiend Final Effluent from DOORNFONTEIN#1 G/M"}, "geometry": {"type": "Point", "coordinates": [27.32, -26.39]}}, {"type": "Feature", "properties": {"code": "C2H244", "name": "Eastdene Final Effluent from Blyvooruitzicht Gold Mine"}, "geometry": {"type": "Point", "coordinates": [27.39278, -26.38861]}}, {"type": "Feature", "properties": {"code": "C2H245", "name": "Blyvooruitzicht 116 IQ - Final Effluent from Western Deep Levels North Gold Mine"}, "geometry": {"type": "Point", "coordinates": [27.40658, -26.41942]}}, {"type": "Feature", "properties": {"code": "C2H246", "name": "Loopspruit at Gravel Road Bridge Leeudoorn (D/S K"}, "geometry": {"type": "Point", "coordinates": [27.55417, -26.43306]}}, {"type": "Feature", "properties": {"code": "C2H247", "name": "Loopspruit at Gravel Piet Viljoen Park Fochville"}, "geometry": {"type": "Point", "coordinates": [27.50194, -26.49972]}}, {"type": "Feature", "properties": {"code": "C2H248", "name": "Concrete Stormwater Canal at Bekkersdal"}, "geometry": {"type": "Point", "coordinates": [27.69556, -26.27889]}}, {"type": "Feature", "properties": {"code": "C2H249", "name": "(Check Position ! Duplicate) at Klipdrift Dam O/Flow Klipdrift on Loopspruit"}, "geometry": {"type": "Point", "coordinates": [27.299, -26.61875]}}, {"type": "Feature", "properties": {"code": "C2H250", "name": "Vaalriver (Bridge) at Scandinawiedrif"}, "geometry": {"type": "Point", "coordinates": [27.05861, -26.93667]}}, {"type": "Feature", "properties": {"code": "C2H251", "name": "At Parys on Vaalrivier"}, "geometry": {"type": "Point", "coordinates": [27.46111, -26.89417]}}, {"type": "Feature", "properties": {"code": "C2H252", "name": "Mooi River at D/S of Dam Overflow Potchefstroom"}, "geometry": {"type": "Point", "coordinates": [27.10156, -26.6855]}}, {"type": "Feature", "properties": {"code": "C2H253", "name": "Potchefstroom Grimbeekpark at Road Bridge on Mooirivier"}, "geometry": {"type": "Point", "coordinates": [27.10722, -26.71583]}}, {"type": "Feature", "properties": {"code": "C2H254", "name": "Wilgeboom 457 IQ at Potchefstroom on Mooirivier"}, "geometry": {"type": "Point", "coordinates": [27.09972, -26.75139]}}, {"type": "Feature", "properties": {"code": "C2H255", "name": "Potchefstroom Final Effluent from Potchefstroom WCW"}, "geometry": {"type": "Point", "coordinates": [27.09444, -26.75056]}}, {"type": "Feature", "properties": {"code": "C2H256", "name": "Potchefstroom at Potchefstroom Parys Road on Loopspruit"}, "geometry": {"type": "Point", "coordinates": [27.12611, -26.72889]}}, {"type": "Feature", "properties": {"code": "C2H257", "name": "Final Effluent from Kokosi WCW at Kokosi"}, "geometry": {"type": "Point", "coordinates": [27.46028, -26.49722]}}, {"type": "Feature", "properties": {"code": "C2H258", "name": "Loopspruit 100M ds Kokosi WCW at Kokosi"}, "geometry": {"type": "Point", "coordinates": [27.46, -26.49917]}}, {"type": "Feature", "properties": {"code": "C2H259", "name": "Elandsfontein 115 IQ Final Effluent from Western Deep Levels South STW"}, "geometry": {"type": "Point", "coordinates": [27.42139, -26.44831]}}, {"type": "Feature", "properties": {"code": "C2H260", "name": "At Kromdraai Low Water Bridge on Vaal River (NCMP)"}, "geometry": {"type": "Point", "coordinates": [26.92694, -26.88722]}}, {"type": "Feature", "properties": {"code": "C2H261", "name": "Wonderfontein on Final Effluent from Oberholzer STW"}, "geometry": {"type": "Point", "coordinates": [27.38111, -26.33056]}}, {"type": "Feature", "properties": {"code": "C2H262", "name": "Final Effluent from Wedela SW at Buffelsdoorn"}, "geometry": {"type": "Point", "coordinates": [27.375, -26.48694]}}, {"type": "Feature", "properties": {"code": "C2H263", "name": "Overflow from Return Water Dam at Buffelsdoorn"}, "geometry": {"type": "Point", "coordinates": [27.36636, -26.46861]}}, {"type": "Feature", "properties": {"code": "C2H265", "name": "Final Effluent from East Driefontein at Phomolong"}, "geometry": {"type": "Point", "coordinates": [27.4975, -26.38472]}}, {"type": "Feature", "properties": {"code": "C2H266", "name": "Final Effluent from West Driefontein #4 at West D"}, "geometry": {"type": "Point", "coordinates": [27.42528, -26.38361]}}, {"type": "Feature", "properties": {"code": "C2H267", "name": "Khuthong STW at Final Effluent at Wonderfonteinspruit"}, "geometry": {"type": "Point", "coordinates": [27.30889, -26.35306]}}, {"type": "Feature", "properties": {"code": "C2H268", "name": "Welverdiend Final Effluent from Welverdiend STW"}, "geometry": {"type": "Point", "coordinates": [27.25583, -26.37139]}}, {"type": "Feature", "properties": {"code": "C2H269", "name": "Varkenslaagtespruit at Doornfontein (Doorndraai D"}, "geometry": {"type": "Point", "coordinates": [27.32778, -26.43917]}}, {"type": "Feature", "properties": {"code": "C2H270", "name": "Luipaardsvlei on Wonderfonteinspruit Outflow from Dam"}, "geometry": {"type": "Point", "coordinates": [27.74222, -26.21611]}}, {"type": "Feature", "properties": {"code": "C2H271", "name": "Luipaardsvlei at R559 Bridge on Wonderfonteinspruit"}, "geometry": {"type": "Point", "coordinates": [27.73111, -26.24472]}}, {"type": "Feature", "properties": {"code": "C2H274", "name": "Van Niekerksrust Vierfontein - on Vierfonteinspruit (NCWQ)"}, "geometry": {"type": "Point", "coordinates": [26.7584, -27.07158]}}, {"type": "Feature", "properties": {"code": "C3H006", "name": "Groenfontein 311 IO - at Road Bridge on Hartsrivier at Barberspan Dam"}, "geometry": {"type": "Point", "coordinates": [25.57683, -26.618]}}, {"type": "Feature", "properties": {"code": "C3H007", "name": "Espagsdrif Seoding 25 Bridge at the Weir on Harts River (ncwq NCMP nemp nemp)"}, "geometry": {"type": "Point", "coordinates": [24.61556, -27.90278]}}, {"type": "Feature", "properties": {"code": "C3H012", "name": "Groot Vlakfontein 141 at Metsematshwe Reserve on Vlakfontein Eye"}, "geometry": {"type": "Point", "coordinates": [24.08889, -27.65861]}}, {"type": "Feature", "properties": {"code": "C4H003", "name": "Virginia 448 - at upstream Before Virginia Under R73 Road Bridge at Flowing"}, "geometry": {"type": "Point", "coordinates": [26.90917, -28.11306]}}, {"type": "Feature", "properties": {"code": "C4H016", "name": "Bloudrif - at R30 Road Bridge on Sand River near Mouth of Doornrivier (ncwq NCMP nmmp)"}, "geometry": {"type": "Point", "coordinates": [26.71944, -28.1175]}}, {"type": "Feature", "properties": {"code": "C4H021", "name": "Rheezicht 2242 - at Roadbridge Raphidam 2150 on Klein Vet River (NCWQ NCMP)"}, "geometry": {"type": "Point", "coordinates": [27.01681, -28.61876]}}, {"type": "Feature", "properties": {"code": "C4H023", "name": "Strydfontein 23 - at Road Bridge U/S Erfnis Dam on Groot Vet River (NCWQ NCMP)"}, "geometry": {"type": "Point", "coordinates": [26.95916, -28.71233]}}, {"type": "Feature", "properties": {"code": "C5H014", "name": "Richie Klipdrift 109 - at U/S Side of Weir on Riet River (NCWQ NCMP)"}, "geometry": {"type": "Point", "coordinates": [24.6, -29.04222]}}, {"type": "Feature", "properties": {"code": "C5H049", "name": "Philippia Kalkfontein Dam Weir for Spilway Discharge on Riet T (NCWQ)"}, "geometry": {"type": "Point", "coordinates": [25.20667, -29.47222]}}, {"type": "Feature", "properties": {"code": "C5H050", "name": "Groothoek 125 - at Pipeline to Treatment Works - Thaba Nchu at Groothoek Dam (NCWQ)"}, "geometry": {"type": "Point", "coordinates": [26.84889, -29.30278]}}, {"type": "Feature", "properties": {"code": "C5H055", "name": "De Wetskom 452 - on Novo Canal (NCWQ)"}, "geometry": {"type": "Point", "coordinates": [26.71667, -29.62417]}}, {"type": "Feature", "properties": {"code": "C5H056", "name": "Diepwater 227 - on Modderrivier (NCWQ)"}, "geometry": {"type": "Point", "coordinates": [26.66556, -29.37556]}}, {"type": "Feature", "properties": {"code": "C6H006", "name": "Tweefontein Bothaville on Vals (NCWQ)"}, "geometry": {"type": "Point", "coordinates": [26.65861, -27.47528]}}, {"type": "Feature", "properties": {"code": "C6H007", "name": "Barend Wesselsdam (See C6H007) (ncwq)"}, "geometry": {"type": "Point", "coordinates": [27.23333, -27.67083]}}, {"type": "Feature", "properties": {"code": "C6H008", "name": "Theron 875 at Theronsbrug on Valsrivier"}, "geometry": {"type": "Point", "coordinates": [27.10167, -27.61083]}}, {"type": "Feature", "properties": {"code": "C6H009", "name": "Lindley Brandhoek 20 - on Valsrivier"}, "geometry": {"type": "Point", "coordinates": [27.91528, -27.87194]}}, {"type": "Feature", "properties": {"code": "C7H001", "name": "Junction 172 - at Weir on Renosterrivier (NCWQ)"}, "geometry": {"type": "Point", "coordinates": [27.17278, -27.26528]}}, {"type": "Feature", "properties": {"code": "C8H008", "name": "At Metz Sterkfontein Dam on Tugela-Vaal Canal on Tugela -Vaal Canal to Sterkfontein Dam (n"}, "geometry": {"type": "Point", "coordinates": [29.08333, -28.54139]}}, {"type": "Feature", "properties": {"code": "C8H011", "name": "Killarney 604 on Elandsrivier (NCWQ)"}, "geometry": {"type": "Point", "coordinates": [28.87472, -28.16083]}}, {"type": "Feature", "properties": {"code": "C8H030", "name": "Slabberts 1097 - on Wilgerivier"}, "geometry": {"type": "Point", "coordinates": [28.48889, -27.29389]}}, {"type": "Feature", "properties": {"code": "C8H037", "name": "Reward 7 - at Weir on Liebenbergsvleirivier (NCWQ)"}, "geometry": {"type": "Point", "coordinates": [28.31778, -27.79583]}}, {"type": "Feature", "properties": {"code": "C8H038", "name": "Witzieshoek 1926 at Fika-Patso on Namahadi (NCWQ)"}, "geometry": {"type": "Point", "coordinates": [28.85444, -28.66778]}}, {"type": "Feature", "properties": {"code": "C8R008", "name": "Witsieshoek 1815 Fika-Patso Dam on Namahadi (NCWQ)"}, "geometry": {"type": "Point", "coordinates": [28.85751, -28.67225]}}, {"type": "Feature", "properties": {"code": "C9H006", "name": "At Bloemhof on Vaalrivier"}, "geometry": {"type": "Point", "coordinates": [25.59389, -27.65417]}}, {"type": "Feature", "properties": {"code": "C9H008", "name": "Nazareth Farm Weir 1KM downstream of Vaalharts Dam Wall at the Wier on Vaal River (ncwq NC"}, "geometry": {"type": "Point", "coordinates": [24.91528, -28.11417]}}, {"type": "Feature", "properties": {"code": "C9H010", "name": "Wilmea Vaal Gamagara 0.85KM After Confluence of Harts and Vaal River (nemp nemp)"}, "geometry": {"type": "Point", "coordinates": [24.27167, -28.40583]}}, {"type": "Feature", "properties": {"code": "C9H020", "name": "Schoolplaats (Vaal- Harts Storageweir)"}, "geometry": {"type": "Point", "coordinates": [24.92583, -28.11528]}}, {"type": "Feature", "properties": {"code": "C9H023", "name": "Schmidtsdrift near Old Diggings R64 Bridge on Vaal River"}, "geometry": {"type": "Point", "coordinates": [24.075, -28.70417]}}, {"type": "Feature", "properties": {"code": "D1H031", "name": "Lesotho - on Oranjerivier (Senqu)"}, "geometry": {"type": "Point", "coordinates": [27.575, -30.36389]}}, {"type": "Feature", "properties": {"code": "D1R003", "name": "Mohale Dam on Senqunyane"}, "geometry": {"type": "Point", "coordinates": [28.0981, -29.4556]}}, {"type": "Feature", "properties": {"code": "D2H012", "name": "Caledonspoort 190 the Poplars 199 at the Poplars on Little Caledon River (ncwq NCMP)"}, "geometry": {"type": "Point", "coordinates": [28.23487, -28.69485]}}, {"type": "Feature", "properties": {"code": "D2H033", "name": "Welbedacht 285 - at Gauging Weir on Caledon River D/S of Welbedachtdam"}, "geometry": {"type": "Point", "coordinates": [26.86, -29.92556]}}, {"type": "Feature", "properties": {"code": "D2H034", "name": "Mpharane - at Dam Spillway on Meulspruit Dam (NCWQ)"}, "geometry": {"type": "Point", "coordinates": [27.835, -28.88056]}}, {"type": "Feature", "properties": {"code": "D2H039", "name": "Caledonspoort on Caledon River (NCWQ)"}, "geometry": {"type": "Point", "coordinates": [28.23, -28.69]}}, {"type": "Feature", "properties": {"code": "D3H034", "name": "Scheiding Orange-Riet Canal on Orange-Riet Canal"}, "geometry": {"type": "Point", "coordinates": [24.7, -29.89]}}, {"type": "Feature", "properties": {"code": "D3H035", "name": "Naauwpoort 417 Scheiding - at Ramah Canal"}, "geometry": {"type": "Point", "coordinates": [24.70137, -29.90677]}}, {"type": "Feature", "properties": {"code": "D3R003", "name": "Orange River at Dooren Kuilen (downstream of D3R003) (NCWQ NCMP)"}, "geometry": {"type": "Point", "coordinates": [24.72444, -29.99111]}}, {"type": "Feature", "properties": {"code": "D4H005", "name": "Kuruman Oog a (D4H005) - NC18"}, "geometry": {"type": "Point", "coordinates": [23.4362, -27.4641]}}, {"type": "Feature", "properties": {"code": "D4H007", "name": "Manyeding Oog (D4H007) - NC20"}, "geometry": {"type": "Point", "coordinates": [23.6841, -27.502]}}, {"type": "Feature", "properties": {"code": "D4H009", "name": "Groot Kono Oog (D4H009) - NC17"}, "geometry": {"type": "Point", "coordinates": [23.6043, -27.6826]}}, {"type": "Feature", "properties": {"code": "D4H012", "name": "Mmabatho"}, "geometry": {"type": "Point", "coordinates": [25.55778, -25.86389]}}, {"type": "Feature", "properties": {"code": "D4H014", "name": "Molopo Oog(D4H014) - WR49"}, "geometry": {"type": "Point", "coordinates": [26.0259, -25.8895]}}, {"type": "Feature", "properties": {"code": "D4H016", "name": "Welgedacht 103 JO on Welgedacht Eye"}, "geometry": {"type": "Point", "coordinates": [25.96667, -25.82306]}}, {"type": "Feature", "properties": {"code": "D4H017", "name": "Olievendraai Oog (D4H017) - WR66"}, "geometry": {"type": "Point", "coordinates": [25.8714, -25.8573]}}, {"type": "Feature", "properties": {"code": "D5H005", "name": "Seekoeigat 277 - Flow Monitoring on Rietrivier"}, "geometry": {"type": "Point", "coordinates": [20.65306, -31.60742]}}, {"type": "Feature", "properties": {"code": "D7H009", "name": "Rietfontein 11 Koegas on Oranjerivier"}, "geometry": {"type": "Point", "coordinates": [22.31806, -29.32778]}}, {"type": "Feature", "properties": {"code": "E1H006", "name": "Jd-B - Clanwilliam Commonage Warmhoek - at Gauging Weir on Jan Disselsrivier (NCWQ)"}, "geometry": {"type": "Point", "coordinates": [18.93676, -32.21156]}}, {"type": "Feature", "properties": {"code": "E1H007", "name": "Kromme Valley 113 Bulshoek Dam on Left Bank Canal from Bulshoek Dam (NCWQ nmmp)"}, "geometry": {"type": "Point", "coordinates": [18.7866, -31.99523]}}, {"type": "Feature", "properties": {"code": "E1H016", "name": "Andriesgrond Clanwilliam Dam on Olifants River"}, "geometry": {"type": "Point", "coordinates": [18.87, -32.18]}}, {"type": "Feature", "properties": {"code": "E1H018", "name": "Olifants River at Visgat (NCMP)"}, "geometry": {"type": "Point", "coordinates": [19.21878, -33.08883]}}, {"type": "Feature", "properties": {"code": "E1R001", "name": "Kromme Valley 113 Bulshoek Dam on Olifants River: near Dam Wall (ncwq NCMP nemp)"}, "geometry": {"type": "Point", "coordinates": [18.78645, -31.996]}}, {"type": "Feature", "properties": {"code": "E2H009", "name": "Uitkomst Inverdoorn Canal from Valsgatrivier (NCWQ)"}, "geometry": {"type": "Point", "coordinates": [19.63578, -33.29588]}}, {"type": "Feature", "properties": {"code": "E3H004", "name": "Olifants River at Lutzville (Formerly E2H016) (ncwq NCMP)"}, "geometry": {"type": "Point", "coordinates": [18.3306, -31.5653]}}, {"type": "Feature", "properties": {"code": "G1H066", "name": "Gouda Nieuwkloof - on Inlet Canal from Klein Berg River to Voelvlei Dam (nemp NEMP)"}, "geometry": {"type": "Point", "coordinates": [19.0575, -33.29417]}}, {"type": "Feature", "properties": {"code": "G1H067", "name": "Doorn Boom 199 - on Inlet Canal from Vier-en-Twintig-Riviere to Voelvlei Dam"}, "geometry": {"type": "Point", "coordinates": [19.05306, -33.31917]}}, {"type": "Feature", "properties": {"code": "G1H076", "name": "Robertsvlei - Berg River Dam - on Berg River U/S of Berg River Dam (NCMP)"}, "geometry": {"type": "Point", "coordinates": [19.07289, -33.95578]}}, {"type": "Feature", "properties": {"code": "G1H077", "name": "Robertsvlei - Berg River Dam - on Berg River D/S of Berg River Dam (NCMP)"}, "geometry": {"type": "Point", "coordinates": [19.05478, -33.90494]}}, {"type": "Feature", "properties": {"code": "G1H078", "name": "Boschendal - Dwars River at Boschendal (NCMP)"}, "geometry": {"type": "Point", "coordinates": [18.98214, -33.87358]}}, {"type": "Feature", "properties": {"code": "G1H080", "name": "Wemmershoek - on Wemmershoek River at Wemmershoek Dam (NCMP)"}, "geometry": {"type": "Point", "coordinates": [19.04252, -33.8524]}}, {"type": "Feature", "properties": {"code": "J2H001", "name": "Klipfontein 93 - on Gamkarivier"}, "geometry": {"type": "Point", "coordinates": [21.94031, -33.08347]}}, {"type": "Feature", "properties": {"code": "K2H010", "name": "K2H010 Groot Brakrivier Voorburg 255 - on Groot-Brakrivier (NMMP)"}, "geometry": {"type": "Point", "coordinates": [22.22222, -34.03361]}}, {"type": "Feature", "properties": {"code": "K6H019", "name": "Newlands 224 - on Keurbooms River (NCMP)"}, "geometry": {"type": "Point", "coordinates": [23.3675, -33.94583]}}, {"type": "Feature", "properties": {"code": "K6H020", "name": "Roodefontein 440 on Klein Piesangrivier"}, "geometry": {"type": "Point", "coordinates": [23.34, -34.08]}}, {"type": "Feature", "properties": {"code": "K9H008", "name": "Humansdorp on Pipeline to Purification Works (NCWQ)"}, "geometry": {"type": "Point", "coordinates": [24.77, -34.02]}}, {"type": "Feature", "properties": {"code": "L2H003", "name": "Murraysburg on Buffelsrivier"}, "geometry": {"type": "Point", "coordinates": [23.78278, -31.95528]}}, {"type": "Feature", "properties": {"code": "L8H002", "name": "Welgelegen 230 on Jordaanrivier Haarlemspruit (NCWQ)"}, "geometry": {"type": "Point", "coordinates": [23.30444, -33.73778]}}, {"type": "Feature", "properties": {"code": "M1H011", "name": "Zwartkops River D/S Fraans Claasen Bridge below Kelvin Jones WWTW"}, "geometry": {"type": "Point", "coordinates": [25.42694, -33.78917]}}, {"type": "Feature", "properties": {"code": "Q1H013", "name": "Zeeven Fonteynen 254 on Klein Brak River (NCWQ NCMP)"}, "geometry": {"type": "Point", "coordinates": [25.31833, -31.77778]}}, {"type": "Feature", "properties": {"code": "Q2H001", "name": "Great Fish River at Visrivier-N10"}, "geometry": {"type": "Point", "coordinates": [25.41917, -31.91389]}}, {"type": "Feature", "properties": {"code": "Q8H011", "name": "Brak Fontein 261 at Rietfontein Junction Drift on Klein-Visrivier (NCWQ)"}, "geometry": {"type": "Point", "coordinates": [25.95583, -33.09139]}}, {"type": "Feature", "properties": {"code": "Q9H011", "name": "Farm 549 at Upsher on Katrivier"}, "geometry": {"type": "Point", "coordinates": [26.68417, -32.56806]}}, {"type": "Feature", "properties": {"code": "Q9H028", "name": "Seymour at Weltevreden Treatment Works on Pipeline from Katrivier Dam"}, "geometry": {"type": "Point", "coordinates": [26.75536, -32.55872]}}, {"type": "Feature", "properties": {"code": "R2H005", "name": "Buffalo River upstream of R2H005 Weir"}, "geometry": {"type": "Point", "coordinates": [27.38475, -32.87186]}}, {"type": "Feature", "properties": {"code": "R2H010", "name": "135 K.W.T. Q. 2.25 U/S James Mcintyre Bridge on Buffalo River (NCWQ nemp nmmp NEMP)"}, "geometry": {"type": "Point", "coordinates": [27.46064, -32.94053]}}, {"type": "Feature", "properties": {"code": "R2H011", "name": "Fort Murray North Outspan on Yellowwoods River"}, "geometry": {"type": "Point", "coordinates": [27.47911, -32.92489]}}, {"type": "Feature", "properties": {"code": "R2H015", "name": "Fort Murray North Outspan on Yellowwoods River (NCWQ nemp nmmp NEMP)"}, "geometry": {"type": "Point", "coordinates": [27.47256, -32.93169]}}, {"type": "Feature", "properties": {"code": "R2H016", "name": "Jan Tzatzoes Location North 1924 at Malakalaka on Zwelitshaspruit (Duplicate)"}, "geometry": {"type": "Point", "coordinates": [27.44589, -32.93511]}}, {"type": "Feature", "properties": {"code": "R2H021", "name": "Quesha S Dam a 695 on Pipeline to Beacon Hill from Rooikrans Dam (NCWQ)"}, "geometry": {"type": "Point", "coordinates": [27.32769, -32.75544]}}, {"type": "Feature", "properties": {"code": "R2H022", "name": "Quesha S Dam a 695 on Pipeline to Goodhope Textiles from Rooikrans Dam"}, "geometry": {"type": "Point", "coordinates": [27.32769, -32.75544]}}, {"type": "Feature", "properties": {"code": "R2H027", "name": "Potsdam Ndantsane at Mhlabati Needs Camp on Buffalo River (ncwq NCMP gems)"}, "geometry": {"type": "Point", "coordinates": [27.64003, -32.99164]}}, {"type": "Feature", "properties": {"code": "R2H029", "name": "Bridle Drift Dam on Buffalo River"}, "geometry": {"type": "Point", "coordinates": [27.73389, -32.99472]}}, {"type": "Feature", "properties": {"code": "S1H004", "name": "Wit Kei River at Cacadu (NCWQ)"}, "geometry": {"type": "Point", "coordinates": [27.18522, -31.84744]}}, {"type": "Feature", "properties": {"code": "S3H013", "name": "At Hot Fire High Clere on Swart-Kei River (ncwq NCMP)"}, "geometry": {"type": "Point", "coordinates": [27.3725, -32.17389]}}, {"type": "Feature", "properties": {"code": "S7H002", "name": "Butterworth at Thorn Drift on Gcuwa"}, "geometry": {"type": "Point", "coordinates": [28.1911, -32.3344]}}, {"type": "Feature", "properties": {"code": "T1H001", "name": "Caca 45 Xuka Drift (NCWQ NCMP)"}, "geometry": {"type": "Point", "coordinates": [28.11083, -31.67194]}}, {"type": "Feature", "properties": {"code": "T1H008", "name": "Slang River at Road Bridge upstream of Elliot WWTW"}, "geometry": {"type": "Point", "coordinates": [27.85493, -31.33307]}}, {"type": "Feature", "properties": {"code": "T2H006", "name": "At Bridge 400 M US of T2H006 on Mtata (nmmp)"}, "geometry": {"type": "Point", "coordinates": [28.545, -31.484]}}, {"type": "Feature", "properties": {"code": "T3H011", "name": "Ugie at Road Bridge on Wildebeesrivier (Inxu)"}, "geometry": {"type": "Point", "coordinates": [28.23693, -31.19385]}}, {"type": "Feature", "properties": {"code": "T3H016", "name": "Tsitsa River at R56 Bridge to MT Frere"}, "geometry": {"type": "Point", "coordinates": [28.85417, -31.23694]}}, {"type": "Feature", "properties": {"code": "U1H006", "name": "Shozi on Mkomazi River (See U1H006) (NCMP)"}, "geometry": {"type": "Point", "coordinates": [30.67422, -30.13574]}}, {"type": "Feature", "properties": {"code": "U1H007", "name": "Pipeline from Mkomazi River Umkomaas WWTW"}, "geometry": {"type": "Point", "coordinates": [30.76643, -30.1813]}}, {"type": "Feature", "properties": {"code": "U1H009", "name": "Shozi (Delos Estate) on Mkomazi (See U1H009) (NCWQ ncmp)"}, "geometry": {"type": "Point", "coordinates": [30.69778, -30.16833]}}, {"type": "Feature", "properties": {"code": "U7H012", "name": "Umbumbulu - on Nungwane River"}, "geometry": {"type": "Point", "coordinates": [30.71222, -30.00611]}}, {"type": "Feature", "properties": {"code": "V2H014", "name": "Mearns 15142 - on Mooirivier"}, "geometry": {"type": "Point", "coordinates": [29.97031, -29.24619]}}, {"type": "Feature", "properties": {"code": "V6H004", "name": "Klein Fontein 1262 Gt on Sundays River (ncwq NCMP)"}, "geometry": {"type": "Point", "coordinates": [30.01306, -28.40444]}}, {"type": "Feature", "properties": {"code": "W2H007", "name": "Ekuhlengeni 701 Hu at Mission on Kwambizankulu"}, "geometry": {"type": "Point", "coordinates": [31.19389, -27.96028]}}, {"type": "Feature", "properties": {"code": "W2H014", "name": "at Riversdale Natal Mine on Tributary of Kwamewelawele"}, "geometry": {"type": "Point", "coordinates": [31.1025, -27.80722]}}, {"type": "Feature", "properties": {"code": "W2H022", "name": "Klipstapel 71 Gu (2121/5) on Wit-Mfolozi"}, "geometry": {"type": "Point", "coordinates": [31.02361, -28.2]}}, {"type": "Feature", "properties": {"code": "X1H008", "name": "Crl - 31 X1H008 Leliefontein 1 IT - at R33 Road Bridge on Vaalwaterspruit"}, "geometry": {"type": "Point", "coordinates": [30.02642, -26.00722]}}, {"type": "Feature", "properties": {"code": "X1H034", "name": "Vygeboom Dam Vygeboom 619 JT - at Schoemans Canal (Left) from Vygeboom Dam"}, "geometry": {"type": "Point", "coordinates": [30.62083, -25.88333]}}, {"type": "Feature", "properties": {"code": "X2H059", "name": "Goede Hoop 128 JU on Witrivier"}, "geometry": {"type": "Point", "coordinates": [31.08272, -25.46233]}}, {"type": "Feature", "properties": {"code": "X2H064", "name": "Kruisfontein 226 JT - at Left Canal from Kruisfonteinspruit at Kruisfontein"}, "geometry": {"type": "Point", "coordinates": [30.88028, -25.18528]}}, {"type": "Feature", "properties": {"code": "X2H095", "name": "Boschrand 283 JT - at Road Bridge on Krokodilrivier"}, "geometry": {"type": "Point", "coordinates": [30.96506, -25.46142]}}, {"type": "Feature", "properties": {"code": "X3H023", "name": "Emmet - Boschoek 290 KU - Sabie River at Emmett of the R536 (NCMP)"}, "geometry": {"type": "Point", "coordinates": [31.02828, -25.0309]}}]}